NORAD_CAT_ID,OBJECT_NAME,OBJECT_TYPE,EPOCH,MEAN_MOTION,ECCENTRICITY,INCLINATION,RA_OF_ASC_NODE,ARG_OF_PERICENTER,MEAN_ANOMALY,BSTAR,MEAN_MOTION_DOT,MEAN_MOTION_DDOT,TLE_LINE0,TLE_LINE1,TLE_LINE2,SEMIMAJOR_AXIS,PERIOD,APOGEE,PERIGEE,DECAYED
50848.0,STARLINK-3315,PAYLOAD,2022-10-27 16:56:02,15.08840977,0.0002853,53.2154,296.2578,30.0457,330.0698,0.00012599,1.717e-05,0.0,0 STARLINK-3315,1 50848U 22001AX  22300.70558692  .00001717  00000-0  12599-3 0  9994,2 50848  53.2154 296.2578 0002853  30.0457 330.0698 15.08840977 44739,6917.877,95.437,541.716,537.769,0.0
50848.0,STARLINK-3315,PAYLOAD,2022-10-27 23:17:34,15.08851286,0.0002858,53.2158,295.0673,29.2158,330.8994,0.0001242,1.689e-05,0.0,0 STARLINK-3315,1 50848U 22001AX  22300.97053967  .00001689  00000-0  12420-3 0  9999,2 50848  53.2158 295.0673 0002858  29.2158 330.8994 15.08851286 46081,6917.846,95.437,541.688,537.734,0.0
50848.0,STARLINK-3315,PAYLOAD,2022-10-28 07:14:31,15.088224800000004,0.000274,53.2159,293.5801,33.6992,326.4174,0.00037503,5.683e-05,0.0,0 STARLINK-3315,1 50848U 22001AX  22301.30174906  .00005683  00000-0  37503-3 0  9991,2 50848  53.2159 293.5801 0002740  33.6992 326.4174 15.08822480 44828,6917.934,95.439,541.694,537.903,0.0
50848.0,STARLINK-3315,PAYLOAD,2022-10-28 18:22:12,15.08839928,0.0002965,53.2156,291.4998,37.4172,322.7027,0.00017303,2.466e-05,0.0,0 STARLINK-3315,1 50848U 22001AX  22301.76542246  .00002466  00000-0  17303-3 0  9999,2 50848  53.2156 291.4998 0002965  37.4172 322.7027 15.08839928 44898,6917.880999999999,95.438,541.797,537.694,0.0
50848.0,STARLINK-3315,PAYLOAD,2022-10-29 05:29:54,15.08843966,0.000239,53.2159,289.4157,31.5566,328.5569,2.7816e-05,1.54e-06,0.0,0 STARLINK-3315,1 50848U 22001AX  22302.22909928  .00000154  00000-0  27816-4 0  9998,2 50848  53.2159 289.4157 0002390  31.5566 328.5569 15.08843966 44969,6917.868,95.437,541.387,538.08,0.0
50848.0,STARLINK-3315,PAYLOAD,2022-10-29 18:12:59,15.08842277,0.0002807,53.2159,287.0392,28.3479,331.7666,-5.4436e-06,-3.75e-06,0.0,0 STARLINK-3315,1 50848U 22001AX  22302.75902161 -.00000375  00000-0 -54436-5 0  9994,2 50848  53.2159 287.0392 0002807  28.3479 331.7666 15.08842277 45042,6917.873000000001,95.437,541.68,537.797,0.0
50848.0,STARLINK-3315,PAYLOAD,2022-10-30 05:20:41,15.08841358,0.0002776,53.2154,284.9571,29.3592,330.7556,-7.9027e-05,-1.546e-05,0.0,0 STARLINK-3315,1 50848U 22001AX  22303.22270303 -.00001546  00000-0 -79027-4 0  9996,2 50848  53.2154 284.9571 0002776  29.3592 330.7556 15.08841358 45118,6917.876,95.437,541.6619999999998,537.821,0.0
50848.0,STARLINK-3315,PAYLOAD,2022-10-30 18:03:46,15.08837194,0.0002733,53.2159,282.5788,28.5648,331.5494,-3.8258e-05,-8.97e-06,0.0,0 STARLINK-3315,1 50848U 22001AX  22303.75262529 -.00000897  00000-0 -38258-4 0  9994,2 50848  53.2159 282.5788 0002733  28.5648 331.5494 15.08837194 45194,6917.889,95.438,541.645,537.863,0.0
50848.0,STARLINK-3315,PAYLOAD,2022-10-31 08:22:15,15.08834495,0.0002708999999999,53.2154,279.9012,27.6358,332.4777,-1.5888e-05,-5.41e-06,0.0,0 STARLINK-3315,1 50848U 22001AX  22304.34878808 -.00000541  00000-0 -15888-4 0  9993,2 50848  53.2154 279.9012 0002709  27.6358 332.4777 15.08834495 45285,6917.897,95.438,541.636,537.888,0.0
50848.0,STARLINK-3315,PAYLOAD,2022-10-31 17:54:34,15.08834167,0.0002715,53.2154,278.117,26.72300000000001,333.3902,5.7024e-05,6.19e-06,0.0,0 STARLINK-3315,1 50848U 22001AX  22304.74622724  .00000619  00000-0  57024-4 0  9993,2 50848  53.2154 278.1170 0002715  26.7230 333.3902 15.08834167 45340,6917.898,95.438,541.641,537.885,0.0
50848.0,STARLINK-3315,PAYLOAD,2022-11-01 05:02:15,15.08838978,0.0002743,53.2153,276.0354,27.6149,332.4989,9.3631e-05,1.202e-05,0.0,0 STARLINK-3315,1 50848U 22001AX  22305.20990495  .00001202  00000-0  93631-4 0  9991,2 50848  53.2153 276.0354 0002743  27.6149 332.4989 15.08838978 45417,6917.884,95.438,541.646,537.851,0.0
50848.0,STARLINK-3315,PAYLOAD,2022-11-01 17:45:21,15.08835735,0.00027,53.2156,273.6559,23.2457,336.8656,8.5525e-05,1.073e-05,0.0,0 STARLINK-3315,1 50848U 22001AX  22305.73982816  .00001073  00000-0  85525-4 0  9996,2 50848  53.2156 273.6559 0002700  23.2457 336.8656 15.08835735 45492,6917.893,95.438,541.626,537.891,0.0
50848.0,STARLINK-3315,PAYLOAD,2022-11-02 03:17:40,15.08834691,0.0002779,53.2156,271.872,23.3396,336.7722,7.044e-05,8.33e-06,0.0,0 STARLINK-3315,1 50848U 22001AX  22306.13727099  .00000833  00000-0  70440-4 0  9994,2 50848  53.2156 271.8720 0002779  23.3396 336.7722 15.08834691 46866,6917.897,95.438,541.684,537.839,0.0
50848.0,STARLINK-3315,PAYLOAD,2022-11-02 04:53:03,15.08835551,0.0002858,53.2155,271.5747,23.6459,336.4665,7.6838e-05,9.34e-06,0.0,0 STARLINK-3315,1 50848U 22001AX  22306.20351068  .00000934  00000-0  76838-4 0  9990,2 50848  53.2155 271.5747 0002858  23.6459 336.4665 15.08835551 45567,6917.894,95.438,541.736,537.7819999999998,0.0
50848.0,STARLINK-3315,PAYLOAD,2022-11-02 20:46:54,15.08835302,0.00028,53.2156,268.601,24.524,335.5885,3.823300000000001e-05,3.2e-06,0.0,0 STARLINK-3315,1 50848U 22001AX  22306.86591358  .00000320  00000-0  38233-4 0  9996,2 50848  53.2156 268.6010 0002800  24.5240 335.5885 15.08835302 45662,6917.895,95.438,541.697,537.823,0.0
50848.0,STARLINK-3315,PAYLOAD,2022-11-03 04:43:50,15.08835512,0.0002768999999999,53.2157,267.1138,25.3536,334.7592,2.2475e-05,6.9e-07,0.0,0 STARLINK-3315,1 50848U 22001AX  22307.19711499  .00000069  00000-0  22475-4 0  9994,2 50848  53.2157 267.1138 0002769  25.3536 334.7592 15.08835512 47020,6917.894,95.438,541.675,537.844,0.0
50848.0,STARLINK-3315,PAYLOAD,2022-11-03 07:54:36,15.08840251,0.0002745,53.2158,266.5185,26.1876,333.9255,7.9454e-06,-1.62e-06,0.0,0 STARLINK-3315,1 50848U 22001AX  22307.32959258 -.00000162  00000-0  79454-5 0  9991,2 50848  53.2158 266.5185 0002745  26.1876 333.9255 15.08840251 45735,6917.88,95.438,541.644,537.846,0.0
50848.0,STARLINK-3315,PAYLOAD,2022-11-04 02:59:12,15.08854283,0.0002438,53.2152,262.9534,33.1679,326.9465,0.00017131,2.44e-05,0.0,0 STARLINK-3315,1 50848U 22001AX  22308.12445544  .00002440  00000-0  17131-3 0  9990,2 50848  53.2152 262.9534 0002438  33.1679 326.9465 15.08854283 47169,6917.837,95.437,541.388,538.015,0.0
50848.0,STARLINK-3315,PAYLOAD,2022-11-04 04:34:36,15.08851809,0.0001887,53.2156,262.6526,33.5208,326.5904,0.00016092,2.275e-05,0.0,0 STARLINK-3315,1 50848U 22001AX  22308.19069531  .00002275  00000-0  16092-3 0  9996,2 50848  53.2156 262.6526 0001887  33.5208 326.5904 15.08851809 45860,6917.844,95.437,541.015,538.404,0.0
50848.0,STARLINK-3315,PAYLOAD,2022-11-04 14:06:54,15.08852943,0.0001543,53.2155,260.87,41.1233,318.9875,0.00014856,2.078e-05,0.0,0 STARLINK-3315,1 50848U 22001AX  22308.58813025  .00002078  00000-0  14856-3 0  9991,2 50848  53.2155 260.8700 0001543  41.1233 318.9875 15.08852943 45924,6917.840999999999,95.437,540.773,538.638,0.0
50848.0,STARLINK-3315,PAYLOAD,2022-11-05 06:00:47,15.08836028,0.0002606,53.2163,257.8948,28.9544,331.1593,1.4455e-05,-5.8e-07,0.0,0 STARLINK-3315,1 50848U 22001AX  22309.25054762 -.00000058  00000-0  14455-4 0  9994,2 50848  53.2163 257.8948 0002606  28.9544 331.1593 15.08836028 46024,6917.893,95.438,541.56,537.955,0.0
50848.0,STARLINK-3315,PAYLOAD,2022-11-05 13:57:44,15.0882383,0.000264,53.215,256.4117,32.8778,327.2378,-0.00017021,-2.995e-05,0.0,0 STARLINK-3315,1 50848U 22001AX  22309.58176301 -.00002995  00000-0 -17021-3 0  9998,2 50848  53.2150 256.4117 0002640  32.8778 327.2378 15.08823830 47388,6917.93,95.439,541.621,537.9680000000002,0.0
50848.0,STARLINK-3315,PAYLOAD,2022-11-06 05:51:35,15.08826644,0.0002286,53.2146,253.4333,37.2999,322.8151,-0.00021319,-3.679e-05,0.0,0 STARLINK-3315,1 50848U 22001AX  22310.24416662 -.00003679  00000-0 -21319-3 0  9995,2 50848  53.2146 253.4333 0002286  37.2999 322.8151 15.08826644 46172,6917.920999999999,95.438,541.368,538.205,0.0
50848.0,STARLINK-3315,PAYLOAD,2022-11-06 13:48:31,15.088321300000002,0.0002529,53.216,251.9469,34.6838,325.4318,-3.1998e-05,-7.98e-06,0.0,0 STARLINK-3315,1 50848U 22001AX  22310.57536164 -.00000798  00000-0 -31998-4 0  9995,2 50848  53.2160 251.9469 0002529  34.6838 325.4318 15.08832130 47536,6917.904,95.438,541.519,538.02,0.0
50848.0,STARLINK-3315,PAYLOAD,2022-11-07 05:42:22,15.08837926,0.0002249,53.2164,248.9764,28.3066,331.8048,0.00011713,1.576e-05,0.0,0 STARLINK-3315,1 50848U 22001AX  22311.23775634  .00001576  00000-0  11713-3 0  9991,2 50848  53.2164 248.9764 0002249  28.3066 331.8048 15.08837926 47636,6917.887,95.438,541.308,538.196,0.0
50848.0,STARLINK-3315,PAYLOAD,2022-11-08 05:33:09,15.08860198,0.0002756,53.2154,244.5146,30.5232,329.592,0.00056087,8.654e-05,0.0,0 STARLINK-3315,1 50848U 22001AX  22312.23135659  .00008654  00000-0  56087-3 0  9996,2 50848  53.2154 244.5146 0002756  30.5232 329.5920 15.08860198 47780,6917.819,95.436,541.59,537.7769999999998,0.0
50848.0,STARLINK-3315,PAYLOAD,2022-11-09 02:13:08,15.08859763,0.0003164,53.2156,240.6486,23.8411,336.2727,0.00014696,2.052e-05,0.0,0 STARLINK-3315,1 50848U 22001AX  22313.09246306  .00002052  00000-0  14696-3 0  9999,2 50848  53.2156 240.6486 0003164  23.8411 336.2727 15.08859763 47915,6917.82,95.436,541.874,537.496,0.0
50848.0,STARLINK-3315,PAYLOAD,2022-11-09 11:45:27,15.0884688,0.0002804,53.2153,238.8622,32.6291,327.4873,-0.00013032,-2.363e-05,0.0,0 STARLINK-3315,1 50848U 22001AX  22313.48990464 -.00002363  00000-0 -13032-3 0  9993,2 50848  53.2153 238.8622 0002804  32.6291 327.4873 15.08846880 46668,6917.859,95.437,541.664,537.785,0.0
50848.0,STARLINK-3315,PAYLOAD,2022-11-10 11:36:15,15.08826683,0.0002827,53.2148,234.4031,30.5147,329.6009,-0.00041055,-6.815e-05,0.0,0 STARLINK-3315,1 50848U 22001AX  22314.48351596 -.00006815  00000-0 -41055-3 0  9993,2 50848  53.2148 234.4031 0002827  30.5147 329.6009 15.08826683 46811,6917.920999999999,95.438,541.742,537.83,0.0
